*******************************************************************************
 Revised: July 31, 2013             Moon / (Earth)                          301
 
 GEOPHYSICAL DATA (updated 2018-Aug-15):
  Vol. mean radius, km  = 1737.53+-0.03    Mass, x10^22 kg       =    7.349
  Radius (gravity), km  = 1738.0           Surface emissivity    =    0.92
  Radius (IAU), km      = 1737.4           GM, km^3/s^2          = 4902.800066
  Density, g/cm^3       =    3.3437        GM 1-sigma, km^3/s^2  =  +-0.0001  
  V(1,0)                =   +0.21          Surface accel., m/s^2 =    1.62
  Earth/Moon mass ratio = 81.3005690769    Farside crust. thick. = ~80 - 90 km
  Mean crustal density  = 2.97+-.07 g/cm^3 Nearside crust. thick.= 58+-8 km 
  Heat flow, Apollo 15  = 3.1+-.6 mW/m^2   Mean angular diameter = 31'05.2"
  Heat flow, Apollo 17  = 2.2+-.5 mW/m^2   Sid. rot. rate, rad/s = 0.0000026617
  Geometric Albedo      = 0.12             Mean solar day        = 29.5306 d
  Obliquity to orbit    = 6.67 deg         Orbit period          = 27.321582 d
  Semi-major axis, a    = 384400 km        Eccentricity          = 0.05490
  Mean motion, rad/s    = 2.6616995x10^-6  Inclination           = 5.145 deg
  Apsidal period        = 3231.50 d        Nodal period          = 6798.38 d
                                 Perihelion  Aphelion    Mean
  Solar Constant (W/m^2)         1414+-7     1323+-7     1368+-7
  Maximum Planetary IR (W/m^2)   1314        1226        1268
  Minimum Planetary IR (W/m^2)      5.2         5.2         5.2
 *******************************************************************************
 
 
*******************************************************************************
Ephemeris / WWW_USER Tue Dec 10 08:33:23 2019 Pasadena, USA      / Horizons    
*******************************************************************************
Target body name: Moon (301)                      {source: DE431mx}
Center body name: Sun (10)                        {source: DE431mx}
Center-site name: BODY CENTER
*******************************************************************************
Start time      : A.D. 2019-Oct-15 00:00:00.0000 TDB
Stop  time      : A.D. 2030-Jul-11 00:00:00.0000 TDB
Step-size       : 1440 minutes
*******************************************************************************
Center geodetic : 0.00000000,0.00000000,0.0000000 {E-lon(deg),Lat(deg),Alt(km)}
Center cylindric: 0.00000000,0.00000000,0.0000000 {E-lon(deg),Dxy(km),Dz(km)}
Center radii    : 696000.0 x 696000.0 x 696000.0 k{Equator, meridian, pole}    
Output units    : KM-S                                                         
Output type     : GEOMETRIC cartesian states
Output format   : 2 (position and velocity)
Reference frame : ICRF/J2000.0                                                 
Coordinate systm: Ecliptic and Mean Equinox of Reference Epoch                 
*******************************************************************************
            JDTDB,            Calendar Date (TDB),                      X,                      Y,                      Z,                     VX,                     VY,                     VZ,
**************************************************************************************************************************************************************************************************
$$SOE
2459959.500000000, A.D. 2023-Jan-15 00:00:00.0000, -6.075350149853002E+07,  1.340293481853055E+08,  3.053664617605507E+03, -2.720022679460693E+01, -1.322714746983537E+01, -8.462759558891353E-02,
2459960.500000000, A.D. 2023-Jan-16 00:00:00.0000, -6.308519118650292E+07,  1.328703338083116E+08, -4.445899867102504E+03, -2.677590948117749E+01, -1.359310007569257E+01, -8.822596200212729E-02,
2459961.500000000, A.D. 2023-Jan-17 00:00:00.0000, -6.538087671239368E+07,  1.316819504140654E+08, -1.205464921353757E+04, -2.636892256981274E+01, -1.390742833226679E+01, -8.706837285532387E-02,
2459962.500000000, A.D. 2023-Jan-18 00:00:00.0000, -6.764261845587821E+07,  1.304684914418762E+08, -1.934218526674807E+04, -2.599240405344947E+01, -1.417463862434214E+01, -8.074290044516541E-02,
2459963.500000000, A.D. 2023-Jan-19 00:00:00.0000, -6.987361986937454E+07,  1.292336788858190E+08, -2.585478743594885E+04, -2.565942283315321E+01, -1.440361740385262E+01, -6.914708863895580E-02,
2459964.500000000, A.D. 2023-Jan-20 00:00:00.0000, -7.207814305783282E+07,  1.279802512850629E+08, -3.114884011998028E+04, -2.538102140330293E+01, -1.460827743071023E+01, -5.264164582170761E-02,
2459965.500000000, A.D. 2023-Jan-21 00:00:00.0000, -7.426122451123871E+07,  1.267095402119627E+08, -3.483619545574486E+04, -2.516363706784781E+01, -1.480706333468993E+01, -3.216011815081554E-02,
2459966.500000000, A.D. 2023-Jan-22 00:00:00.0000, -7.642816961211210E+07,  1.254211581737319E+08, -3.663418331071734E+04, -2.500674596219709E+01, -1.502083485132765E+01, -9.194163578698067E-03,
2459967.500000000, A.D. 2023-Jan-23 00:00:00.0000, -7.858389615346959E+07,  1.241129331060883E+08, -3.640701301046461E+04, -2.490191318674094E+01, -1.526940526101681E+01,  1.439263207085428E-02,
2459968.500000000, A.D. 2023-Jan-24 00:00:00.0000, -8.073228710107014E+07,  1.227811592597496E+08, -3.418478107438982E+04, -2.483399979240097E+01, -1.556793274375560E+01,  3.668188638985637E-02,
2459969.500000000, A.D. 2023-Jan-25 00:00:00.0000, -8.287573198314305E+07,  1.214211117976626E+08, -3.015366615079343E+04, -2.478416162201682E+01, -1.592463564865862E+01,  5.602672355075011E-02,
2459970.500000000, A.D. 2023-Jan-26 00:00:00.0000, -8.501495928134057E+07,  1.200276707686305E+08, -2.462220797085762E+04, -2.473333634720384E+01, -1.634057133177154E+01,  7.126326960449880E-02,
2459971.500000000, A.D. 2023-Jan-27 00:00:00.0000, -8.714914172997683E+07,  1.185958855345768E+08, -1.797632277610153E+04, -2.466490443519039E+01, -1.681109540539191E+01,  8.176005169487599E-02,
2459972.500000000, A.D. 2023-Jan-28 00:00:00.0000, -8.927617217801525E+07,  1.171213763520735E+08, -1.063591418553144E+04, -2.456595567248556E+01, -1.732799549036749E+01,  8.734265296012378E-02,
2459973.500000000, A.D. 2023-Jan-29 00:00:00.0000, -9.139299402078275E+07,  1.156005559449893E+08, -3.020777802944183E+03, -2.442736238602889E+01, -1.788141330648012E+01,  8.816585209253347E-02,
2459974.500000000, A.D. 2023-Jan-30 00:00:00.0000, -9.349590557310228E+07,  1.140307106963387E+08,  4.472390405245125E+03, -2.424319636931061E+01, -1.846114352103251E+01,  8.459165233650712E-02,
2459975.500000000, A.D. 2023-Jan-31 00:00:00.0000, -9.558080382270640E+07,  1.124099977226820E+08,  1.148379790958762E+04, -2.400997382291591E+01, -1.905730333712208E+01,  7.710075662732319E-02,
2459976.500000000, A.D. 2023-Feb-01 00:00:00.0000, -9.764336646852410E+07,  1.107374049129004E+08,  1.769833150033653E+04, -2.372601213386812E+01, -1.966055644501931E+01,  6.624076299553838E-02,
2459977.500000000, A.D. 2023-Feb-02 00:00:00.0000, -9.967918744101179E+07,  1.090127032124689E+08,  2.285015345180035E+04, -2.339100230407721E+01, -2.026210060609159E+01,  5.260249674920381E-02,
2459978.500000000, A.D. 2023-Feb-03 00:00:00.0000, -1.016838848346077E+08,  1.072364041171634E+08,  2.672605235911906E+04, -2.300579132869482E+01, -2.085358140791676E+01,  3.681297348269030E-02,
2459979.500000000, A.D. 2023-Feb-04 00:00:00.0000, -1.036531971708327E+08,  1.054097239484574E+08,  2.916853058350831E+04, -2.257231831260311E+01, -2.142703362513974E+01,  1.953487178044000E-02,
2459980.500000000, A.D. 2023-Feb-05 00:00:00.0000, -1.055830782340324E+08,  1.035345501072836E+08,  3.007885512091964E+04, -2.209363352490887E+01, -2.197489826933180E+01,  1.465271491642994E-03,
2459981.500000000, A.D. 2023-Feb-06 00:00:00.0000, -1.074697947432042E+08,  1.016134022148483E+08,  2.941981020668149E+04, -2.157393539410100E+01, -2.249012228902420E+01, -1.667040453188307E-02,
2459982.500000000, A.D. 2023-Feb-07 00:00:00.0000, -1.093100262347803E+08,  9.964938176522794E+07,  2.721767124032974E+04, -2.101857897936258E+01, -2.296631963888540E+01, -3.413030946218854E-02,
2459983.500000000, A.D. 2023-Feb-08 00:00:00.0000, -1.111009636114048E+08,  9.764610645130613E+07,  2.356293684841692E+04, -2.043403557841743E+01, -2.339795894837374E+01, -5.017263420897144E-02,
2459984.500000000, A.D. 2023-Feb-09 00:00:00.0000, -1.128404022435928E+08,  9.560762830969244E+07,  1.860953349253535E+04, -1.982781010006586E+01, -2.378054634592811E+01, -6.407405213008133E-02,
2459985.500000000, A.D. 2023-Feb-10 00:00:00.0000, -1.145268269926361E+08,  9.353833681668575E+07,  1.257242630483955E+04, -1.920834174806650E+01, -2.411079122121121E+01, -7.514791045995750E-02,
2459986.500000000, A.D. 2023-Feb-11 00:00:00.0000, -1.161594889723853E+08,  9.144284789813475E+07,  5.723689870595932E+03, -1.858491579809597E+01, -2.438677198826862E+01, -8.276187435720139E-02,
2459987.500000000, A.D. 2023-Feb-12 00:00:00.0000, -1.177384755757296E+08,  8.932587704144631E+07, -1.613010898709297E+03, -1.796759430814442E+01, -2.460814793830703E+01, -8.635784921556144E-02,
2459988.500000000, A.D. 2023-Feb-13 00:00:00.0000, -1.192647742696567E+08,  8.719208989639795E+07, -9.069972438260913E+03, -1.736713062603948E+01, -2.477647873948716E+01, -8.548039130383778E-02,
2459989.500000000, A.D. 2023-Feb-14 00:00:00.0000, -1.207403250826747E+08,  8.504591876716937E+07, -1.624612684923783E+04, -1.679477148486347E+01, -2.489569892064261E+01, -7.982203386410269E-02,
2459990.500000000, A.D. 2023-Feb-15 00:00:00.0000, -1.221680455702019E+08,  8.289133161680089E+07, -2.272264087921008E+04, -1.626178688249590E+01, -2.497273136397641E+01, -6.929277426889868E-02,
2459991.500000000, A.D. 2023-Feb-16 00:00:00.0000, -1.235517965373212E+08,  8.073154665752986E+07, -2.808559281458333E+04, -1.577853915396227E+01, -2.501809502718704E+01, -5.411322887583125E-02,
